     2.100          NAVIGATION                              RINEX VERSION / TYPE
fic2rin                                 09/17/2008 01:09:47 PGM / RUN BY / DATE
                                                            END OF HEADER
11 08  9 16  9 59 44.0  .197566114366D-04 -.682121026330D-12  .000000000000D+00
     .400000000000D+01  .114187500000D+03  .600024993449D-08  .853203461086D+00
     .600889325142D-05  .847729004454D-02  .920332968235D-05  .515365634918D+04
     .208784000000D+06 -.651925802231D-07 -.236521728761D+01  .875443220139D-07
     .890750314206D+00  .163312500000D+03  .614189696289D+00 -.896608775926D-08
     .394659296287D-09  .100000000000D+01  .149700000000D+04  .000000000000D+00
     .240000000000D+01  .000000000000D+00 -.121071934700D-07  .400000000000D+01
     .205356000000D+06  .400000000000D+01
18 08  9 16  9 59 44.0 -.133363064378D-03  .409272615798D-11  .000000000000D+00
     .120000000000D+02 -.641562500000D+02  .532986486741D-08 -.115172336883D+01
    -.318698585033D-05  .987676577643D-02  .294484198093D-05  .515371191406D+04
     .208784000000D+06  .163912773132D-06 -.108531228912D+01  .353902578354D-07
     .945801192805D+00  .310093750000D+03 -.246444207626D+01 -.870857703290D-08
    -.196079596074D-09  .100000000000D+01  .149700000000D+04  .000000000000D+00
     .240000000000D+01  .000000000000D+00 -.107102096081D-07  .120000000000D+02
     .206736000000D+06  .400000000000D+01
11 08  9 16 11 59 44.0  .197514891624D-04 -.682121026330D-12  .000000000000D+00
     .500000000000D+01  .123625000000D+03  .601989360988D-08  .190347401264D+01
     .633113086224D-05  .847789796535D-02  .953674316406D-05  .515365549850D+04
     .215984000000D+06 -.139698386192D-06 -.236528199247D+01  .149011611938D-07
     .890753281004D+00  .157531250000D+03  .614120887937D+00 -.891930009608D-08
     .425017703693D-09  .100000000000D+01  .149700000000D+04  .000000000000D+00
     .240000000000D+01  .000000000000D+00 -.121071934700D-07  .500000000000D+01
     .208806000000D+06  .400000000000D+01
14 08  9 16 11 59 44.0 -.219092238694D-03  .466116034659D-11  .000000000000D+00
     .600000000000D+01 -.458750000000D+02  .367658171581D-08 -.206762866912D+01
    -.242143869400D-05  .418908789288D-02  .129062682390D-04  .515373614502D+04
     .215984000000D+06  .707805156708D-07 -.405811397845D-01  .149011611938D-07
     .989470144500D+00  .143875000000D+03 -.218199563274D+01 -.749602652531D-08
    -.457161899771D-10  .100000000000D+01  .149700000000D+04  .000000000000D+00
     .240000000000D+01  .000000000000D+00 -.931322574615D-08  .600000000000D+01
     .208806000000D+06  .400000000000D+01
18 08  9 16 11 59 44.0 -.133333727717D-03  .409272615798D-11  .000000000000D+00
     .130000000000D+02 -.577812500000D+02  .529807782906D-08 -.101546337241D+00
    -.290386378765D-05  .987762596924D-02  .300817191601D-05  .515371339798D+04
     .215984000000D+06  .391155481339D-07 -.108537545939D+01  .117346644402D-06
     .945799168126D+00  .315031250000D+03 -.246445574723D+01 -.883036782026D-08
    -.214651798252D-09  .100000000000D+01  .149700000000D+04  .000000000000D+00
     .240000000000D+01  .000000000000D+00 -.107102096081D-07  .130000000000D+02
     .208806000000D+06  .400000000000D+01
 2 08  9 16 12  0  0.0  .186995137483D-03 -.284217094304D-11  .000000000000D+00
     .590000000000D+02  .106812500000D+03  .482662961993D-08 -.241190896014D+01
     .572577118874D-05  .876638118643D-02  .760890543461D-05  .515377867508D+04
     .216000000000D+06 -.160187482834D-06 -.217789592039D+01  .670552253723D-07
     .942694639450D+00  .222656250000D+03  .264122404766D+01 -.828891669522D-08
     .519307345521D-09  .100000000000D+01  .149700000000D+04  .000000000000D+00
     .240000000000D+01  .000000000000D+00 -.172294676304D-07  .590000000000D+02
     .208806000000D+06  .400000000000D+01
 3 08  9 16 12  0  0.0  .284210313112D-03  .511590769747D-11  .000000000000D+00
     .730000000000D+02 -.413125000000D+02  .488520348833D-08 -.273972032506D+01
    -.216998159885D-05  .111707564211D-01  .130720436573D-04  .515371099854D+04
     .216000000000D+06  .117346644402D-06  .296075965575D+01 -.128522515297D-06
     .926505863637D+00  .105750000000D+03  .849366020693D+00 -.807640784338D-08
    -.415731602604D-09  .100000000000D+01  .149700000000D+04  .000000000000D+00
     .240000000000D+01  .000000000000D+00 -.419095158577D-08  .730000000000D+02
     .208806000000D+06  .400000000000D+01
 4 08  9 16 12  0  0.0 -.172913540155D-03 -.110276232590D-10  .000000000000D+00
     .930000000000D+02  .995625000000D+02  .496842124040D-08  .404230517366D+00
     .537373125553D-05  .827612366993D-02  .697001814842D-05  .515358617592D+04
     .216000000000D+06  .614672899246D-07 -.215918523327D+01  .117346644402D-06
     .941957350682D+00  .232218750000D+03  .398579093665D+00 -.852642658846D-08
     .489663253583D-09  .100000000000D+01  .149700000000D+04  .000000000000D+00
     .340000000000D+01  .000000000000D+00 -.605359673500D-08  .930000000000D+02
     .208806000000D+06  .400000000000D+01
 5 08  9 16 12  0  0.0 -.636484473944D-04 -.110958353616D-09  .000000000000D+00
     .970000000000D+02 -.302500000000D+02  .557630370400D-08 -.861426729881D-02
    -.155344605446D-05  .929997419007D-02  .339932739735D-05  .515368720818D+04
     .216000000000D+06 -.521540641785D-07  .192865358453D+01  .335276126862D-07
     .943315444829D+00  .303531250000D+03  .127406053250D+01 -.894430113747D-08
    -.310012913282D-09  .100000000000D+01  .149700000000D+04  .000000000000D+00
     .340000000000D+01  .630000000000D+02 -.419095158577D-08  .970000000000D+02
     .208806000000D+06  .400000000000D+01
 6 08  9 16 12  0  0.0  .166175421327D-03 -.170530256582D-11  .000000000000D+00
     .620000000000D+02 -.286250000000D+02  .478805658463D-08 -.141365617085D+00
    -.139325857162D-05  .572749320418D-02  .130720436573D-04  .515372553635D+04
     .216000000000D+06 -.122934579849D-06  .302625106323D+01  .540167093277D-07
     .934072506041D+00  .115531250000D+03 -.157704777951D+01 -.820712757409D-08
    -.398230873629D-09  .100000000000D+01  .149700000000D+04  .000000000000D+00
     .240000000000D+01  .000000000000D+00 -.465661287308D-08  .620000000000D+02
     .208806000000D+06  .400000000000D+01
 7 08  9 16 12  0  0.0  .174669548869D-04  .238742359215D-11  .000000000000D+00
     .430000000000D+02  .748750000000D+02  .477341311753D-08  .223109112691D+01
     .398978590965D-05  .220716302283D-02  .838004052639D-05  .515369610214D+04
     .216000000000D+06  .149011611938D-06  .974006313353D+00  .949949026108D-07
     .963737712458D+00  .218812500000D+03  .272051346001D+01 -.826891586211D-08
     .617882880159D-09  .100000000000D+01  .149700000000D+04  .000000000000D+00
     .240000000000D+01  .000000000000D+00 -.107102096081D-07  .430000000000D+02
     .208806000000D+06  .400000000000D+01
 8 08  9 16 12  0  0.0 -.170257408172D-03 -.159161572810D-11  .000000000000D+00
     .130000000000D+02  .708437500000D+02  .430160775066D-08  .145243980710D+01
     .385195016861D-05  .105632506311D-01  .762008130550D-05  .515371746063D+04
     .216000000000D+06  .149011611938D-06  .102912258732D+01  .558793544769D-08
     .984873107301D+00  .240750000000D+03  .290530323724D+01 -.800604776974D-08
     .413945813933D-09  .100000000000D+01  .149700000000D+04  .000000000000D+00
     .340000000000D+01  .000000000000D+00 -.372529029846D-08  .130000000000D+02
     .208806000000D+06  .400000000000D+01
 9 08  9 16 12  0  0.0  .152001157403D-04  .181898940355D-11  .000000000000D+00
     .290000000000D+02  .627187500000D+02  .455697553061D-08  .109199222762D+01
     .313669443130D-05  .201529937331D-01  .873580574989D-05  .515366177750D+04
     .216000000000D+06 -.450760126114D-06  .938141387389D+00 -.171363353729D-06
     .972771894300D+00  .221875000000D+03  .144195078834D+01 -.834427614402D-08
     .547165648788D-09  .100000000000D+01  .149700000000D+04  .000000000000D+00
     .240000000000D+01  .000000000000D+00 -.558793544769D-08  .290000000000D+02
     .208806000000D+06  .400000000000D+01
10 08  9 16 12  0  0.0 -.494951382279D-05 -.454747350886D-12  .000000000000D+00
     .310000000000D+02 -.550312500000D+02  .482948688180D-08 -.148636285122D+01
    -.297836959362D-05  .801199104171D-02  .255927443504D-05  .515369867134D+04
     .216000000000D+06  .137835741043D-06 -.109463746585D+01 -.128522515297D-06
     .961716044522D+00  .324062500000D+03  .557665458765D+00 -.843928010132D-08
    -.142505935944D-09  .100000000000D+01  .149700000000D+04  .000000000000D+00
     .240000000000D+01  .000000000000D+00 -.232830643654D-08  .310000000000D+02
     .208806000000D+06  .400000000000D+01
12 08  9 16 12  0  0.0 -.350722577423D-03  .159161572810D-11  .000000000000D+00
     .400000000000D+01 -.450625000000D+02  .497985028790D-08  .235048530024D+01
    -.233203172684D-05  .314069085289D-02  .393204391003D-05  .515351970673D+04
     .216000000000D+06  .117346644402D-06  .202463797745D+01  .130385160446D-07
     .964515813715D+00  .303406250000D+03 -.856875644401D+00 -.843106547343D-08
    -.415374444870D-09  .100000000000D+01  .149700000000D+04  .000000000000D+00
     .240000000000D+01  .000000000000D+00 -.116415321827D-07  .400000000000D+01
     .208806000000D+06  .400000000000D+01
13 08  9 16 12  0  0.0  .271286815405D-03  .125055521494D-11  .000000000000D+00
     .330000000000D+02 -.579062500000D+02  .352264673238D-08 -.183696291615D+01
    -.280886888504D-05  .369008444250D-02  .136010348797D-04  .515358500862D+04
     .216000000000D+06  .540167093277D-07 -.226373201695D-01  .540167093277D-07
     .995803362636D+00  .136250000000D+03  .154970853092D+01 -.747245411485D-08
    -.517878714584D-10  .100000000000D+01  .149700000000D+04  .000000000000D+00
     .240000000000D+01  .000000000000D+00 -.111758708954D-07  .330000000000D+02
     .208806000000D+06  .400000000000D+01
